[{"OBJECT_NAME":"GEESAT-2 04","OBJECT_ID":"2024-023D","EPOCH":"2026-03-09T22:58:49.443744","MEAN_MOTION":14.96681304,"ECCENTRICITY":0.00064656,"INCLINATION":49.992,"RA_OF_ASC_NODE":72.838,"ARG_OF_PERICENTER":6.7244,"MEAN_ANOMALY":353.3785,"EPHEMERIS_TYPE":0,"CLASSIFICATION_TYPE":"U","NORAD_CAT_ID":58908,"ELEMENT_SET_NO":999,"REV_AT_EPOCH":11446,"BSTAR":0.0002767609,"MEAN_MOTION_DOT":2.943e-5,"MEAN_MOTION_DDOT":0},{"OBJECT_NAME":"STARLINK-34033","OBJECT_ID":"2025-102Z","EPOCH":"2026-03-09T13:28:47.296128","MEAN_MOTION":14.9833278,"ECCENTRICITY":0.0003568,"INCLINATION":70.001,"RA_OF_ASC_NODE":114.7526,"ARG_OF_PERICENTER":269.7941,"MEAN_ANOMALY":90.2809,"EPHEMERIS_TYPE":0,"CLASSIFICATION_TYPE":"U","NORAD_CAT_ID":64045,"ELEMENT_SET_NO":999,"REV_AT_EPOCH":4586,"BSTAR":0.00028142,"MEAN_MOTION_DOT":3.267e-5,"MEAN_MOTION_DDOT":0}]
